{
  "norad_id": 67259,
  "name": "2025-313M",
  "history": [
    {
      "epoch": "2026-03-28T22:15:15.335712Z",
      "apogee_km": 507.2654060349678,
      "perigee_km": 488.94887946216204,
      "latitude_deg": 4.949443790159103e-05,
      "longitude_deg": 3.7982088898020088,
      "height_km": 499.088208602266,
      "semi_major_axis_km": 6876.244142748565,
      "eccentricity": 0.00133187,
      "inclination_deg": 97.4017,
      "raan_deg": 163.9528,
      "arg_perigee_deg": 283.3849,
      "mean_anomaly_deg": 76.5903,
      "mean_motion_rev_day": 15.22564957
    },
    {
      "epoch": "2026-03-29T04:33:48.280032Z",
      "apogee_km": 507.22819380515193,
      "perigee_km": 488.9044871434562,
      "latitude_deg": 8.01438431457011e-05,
      "longitude_deg": -90.83917063436542,
      "height_km": 499.1969429768102,
      "semi_major_axis_km": 6876.203340474304,
      "eccentricity": 0.0013324,
      "inclination_deg": 97.4017,
      "raan_deg": 164.2118,
      "arg_perigee_deg": 282.4204,
      "mean_anomaly_deg": 77.5542,
      "mean_motion_rev_day": 15.22578509
    },
    {
      "epoch": "2026-03-30T04:13:20.663904Z",
      "apogee_km": 507.1654207347892,
      "perigee_km": 488.7622244931463,
      "latitude_deg": -4.423801922046709e-05,
      "longitude_deg": -85.72462717091737,
      "height_km": 499.67701389155246,
      "semi_major_axis_km": 6876.1008226139675,
      "eccentricity": 0.0013382,
      "inclination_deg": 97.4015,
      "raan_deg": 165.1829,
      "arg_perigee_deg": 278.6763,
      "mean_anomaly_deg": 81.2957,
      "mean_motion_rev_day": 15.2261256
    },
    {
      "epoch": "2026-03-30T05:47:58.753536Z",
      "apogee_km": 507.1679389566525,
      "perigee_km": 488.74701936886504,
      "latitude_deg": -5.984900386172377e-06,
      "longitude_deg": -109.38341407432492,
      "height_km": 499.7062653526633,
      "semi_major_axis_km": 6876.094479162758,
      "eccentricity": 0.00133949,
      "inclination_deg": 97.4015,
      "raan_deg": 165.2476,
      "arg_perigee_deg": 278.444,
      "mean_anomaly_deg": 81.5278,
      "mean_motion_rev_day": 15.22614667
    },
    {
      "epoch": "2026-03-30T10:31:52.955040Z",
      "apogee_km": 507.15286027175443,
      "perigee_km": 488.71563786734896,
      "latitude_deg": 2.6896122391055147e-05,
      "longitude_deg": 179.64061736191405,
      "height_km": 499.8090901208729,
      "semi_major_axis_km": 6876.071249069551,
      "eccentricity": 0.00134068,
      "inclination_deg": 97.4015,
      "raan_deg": 165.4418,
      "arg_perigee_deg": 277.6454,
      "mean_anomaly_deg": 82.326,
      "mean_motion_rev_day": 15.22622383
    },
    {
      "epoch": "2026-03-30T21:34:19.152192Z",
      "apogee_km": 507.1232556367304,
      "perigee_km": 488.64710899196325,
      "latitude_deg": 8.297798032084663e-06,
      "longitude_deg": 14.03114374203423,
      "height_km": 500.04232203068324,
      "semi_major_axis_km": 6876.0221823143465,
      "eccentricity": 0.00134352,
      "inclination_deg": 97.4016,
      "raan_deg": 165.8949,
      "arg_perigee_deg": 275.8664,
      "mean_anomaly_deg": 84.1041,
      "mean_motion_rev_day": 15.22638681
    },
    {
      "epoch": "2026-03-31T19:39:10.298016Z",
      "apogee_km": 507.0175696636661,
      "perigee_km": 488.56944810832465,
      "latitude_deg": -4.1201318395939924e-05,
      "longitude_deg": 42.8178145374952,
      "height_km": 500.5344291439506,
      "semi_major_axis_km": 6875.930508885995,
      "eccentricity": 0.0013415,
      "inclination_deg": 97.4016,
      "raan_deg": 166.8015,
      "arg_perigee_deg": 272.2404,
      "mean_anomaly_deg": 87.7296,
      "mean_motion_rev_day": 15.22669132
    },
    {
      "epoch": "2026-04-01T19:18:37.661184Z",
      "apogee_km": 506.9107549736973,
      "perigee_km": 488.49313277863075,
      "latitude_deg": 5.512595084527941e-05,
      "longitude_deg": 47.95310699523559,
      "height_km": 501.06460069017476,
      "semi_major_axis_km": 6875.838943876164,
      "eccentricity": 0.0013393,
      "inclination_deg": 97.4013,
      "raan_deg": 167.7724,
      "arg_perigee_deg": 268.3762,
      "mean_anomaly_deg": 91.5941,
      "mean_motion_rev_day": 15.22699548
    },
    {
      "epoch": "2026-04-02T18:58:03.023328Z",
      "apogee_km": 506.7662767660804,
      "perigee_km": 488.35590755451176,
      "latitude_deg": -2.5056149057226067e-05,
      "longitude_deg": 53.09688222912812,
      "height_km": 501.5265955475345,
      "semi_major_axis_km": 6875.698092160295,
      "eccentricity": 0.0013388,
      "inclination_deg": 97.4008,
      "raan_deg": 168.7434,
      "arg_perigee_deg": 264.617,
      "mean_anomaly_deg": 95.3539,
      "mean_motion_rev_day": 15.22746338
    },
    {
      "epoch": "2026-04-02T22:07:18.192576Z",
      "apogee_km": 506.75198794584685,
      "perigee_km": 488.3319065326141,
      "latitude_deg": -4.618033423039553e-06,
      "longitude_deg": 5.783835527895561,
      "height_km": 501.6039498392038,
      "semi_major_axis_km": 6875.67894723923,
      "eccentricity": 0.00133951,
      "inclination_deg": 97.4006,
      "raan_deg": 168.8731,
      "arg_perigee_deg": 264.0168,
      "mean_anomaly_deg": 95.9542,
      "mean_motion_rev_day": 15.22752698
    }
  ]
}